{
  "type": "FeatureCollection",
  "features": [
    {
      "type": "Feature",
      "properties": {
        "norad_id": 38709,
        "name": "EXACTVIEW-1 (ADS-1B)",
        "group": "resource",
        "lat": -3.9804416070621094,
        "lon": 99.92013427400799,
        "alt_km": 804.8779054060115,
        "timestamp": "2025-12-16T19:34:23.921916+00:00",
        "meta_object_name": "EXACTVIEW-1 (ADS-1B)",
        "meta_object_id": "2012-039C",
        "meta_epoch": "2025-12-15T21:41:01.409856",
        "meta_mean_motion": 14.24909318,
        "meta_eccentricity": 0.00105059,
        "meta_inclination": 98.9638,
        "meta_ra_of_asc_node": 98.3599,
        "meta_arg_of_pericenter": 344.987,
        "meta_mean_anomaly": 15.0995,
        "meta_ephemeris_type": 0,
        "meta_classification_type": "U",
        "meta_norad_cat_id": 38709,
        "meta_element_set_no": 999,
        "meta_rev_at_epoch": 69660,
        "meta_bstar": 7.5534217e-05,
        "meta_mean_motion_dot": 1.3e-06,
        "meta_mean_motion_ddot": 0,
        "tle_line1": "1 38709U 12039C   25349.90348854  .00000130  00000+0  75534-4 0  9997",
        "tle_line2": "2 38709  98.9638  98.3599 0010505 344.9870  15.0995 14.24909318696608"
      },
      "geometry": {
        "type": "Point",
        "coordinates": [
          99.92013427400799,
          -3.9804416070621094
        ]
      }
    },
    {
      "type": "Feature",
      "properties": {
        "norad_id": 38755,
        "name": "SPOT 6",
        "group": "resource",
        "lat": 21.775697917546776,
        "lon": -121.19000986867559,
        "alt_km": 697.0576271951886,
        "timestamp": "2025-12-16T19:34:23.921927+00:00",
        "meta_object_name": "SPOT 6",
        "meta_object_id": "2012-047A",
        "meta_epoch": "2025-12-15T23:05:43.240128",
        "meta_mean_motion": 14.58606466,
        "meta_eccentricity": 0.00011927,
        "meta_inclination": 98.1572,
        "meta_ra_of_asc_node": 54.6877,
        "meta_arg_of_pericenter": 98.78,
        "meta_mean_anomaly": 261.3534,
        "meta_ephemeris_type": 0,
        "meta_classification_type": "U",
        "meta_norad_cat_id": 38755,
        "meta_element_set_no": 999,
        "meta_rev_at_epoch": 70634,
        "meta_bstar": 7.604464e-05,
        "meta_mean_motion_dot": 3.09e-06,
        "meta_mean_motion_ddot": 0,
        "tle_line1": "1 38755U 12047A   25349.96230602  .00000309  00000+0  76045-4 0  9990",
        "tle_line2": "2 38755  98.1572  54.6877 0001192  98.7800 261.3534 14.58606466706344"
      },
      "geometry": {
        "type": "Point",
        "coordinates": [
          -121.19000986867559,
          21.775697917546776
        ]
      }
    },
    {
      "type": "Feature",
      "properties": {
        "norad_id": 39019,
        "name": "PLEIADES 1B",
        "group": "resource",
        "lat": 54.789914364657264,
        "lon": 51.642648291209376,
        "alt_km": 691.8662874335887,
        "timestamp": "2025-12-16T19:34:23.921937+00:00",
        "meta_object_name": "PLEIADES 1B",
        "meta_object_id": "2012-068A",
        "meta_epoch": "2025-12-15T21:54:55.719360",
        "meta_mean_motion": 14.58556424,
        "meta_eccentricity": 0.00012004,
        "meta_inclination": 98.1792,
        "meta_ra_of_asc_node": 62.5145,
        "meta_arg_of_pericenter": 83.9205,
        "meta_mean_anomaly": 276.2131,
        "meta_ephemeris_type": 0,
        "meta_classification_type": "U",
        "meta_norad_cat_id": 39019,
        "meta_element_set_no": 999,
        "meta_rev_at_epoch": 69413,
        "meta_bstar": 0.00010181645,
        "meta_mean_motion_dot": 4.28e-06,
        "meta_mean_motion_ddot": 0,
        "tle_line1": "1 39019U 12068A   25349.91314490  .00000428  00000+0  10182-3 0  9991",
        "tle_line2": "2 39019  98.1792  62.5145 0001200  83.9205 276.2131 14.58556424694132"
      },
      "geometry": {
        "type": "Point",
        "coordinates": [
          51.642648291209376,
          54.789914364657264
        ]
      }
    },
    {
      "type": "Feature",
      "properties": {
        "norad_id": 39030,
        "name": "GOKTURK 2",
        "group": "resource",
        "lat": 23.503458080320485,
        "lon": 15.636836751748413,
        "alt_km": 643.2863843717314,
        "timestamp": "2025-12-16T19:34:23.921948+00:00",
        "meta_object_name": "GOKTURK 2",
        "meta_object_id": "2012-073A",
        "meta_epoch": "2025-12-15T23:20:03.988032",
        "meta_mean_motion": 14.7529641,
        "meta_eccentricity": 0.0001093,
        "meta_inclination": 97.6896,
        "meta_ra_of_asc_node": 191.4668,
        "meta_arg_of_pericenter": 105.7821,
        "meta_mean_anomaly": 254.3509,
        "meta_ephemeris_type": 0,
        "meta_classification_type": "U",
        "meta_norad_cat_id": 39030,
        "meta_element_set_no": 999,
        "meta_rev_at_epoch": 69749,
        "meta_bstar": 8.544201e-05,
        "meta_mean_motion_dot": 5.32e-06,
        "meta_mean_motion_ddot": 0,
        "tle_line1": "1 39030U 12073A   25349.97226838  .00000532  00000+0  85442-4 0  9992",
        "tle_line2": "2 39030  97.6896 191.4668 0001093 105.7821 254.3509 14.75296410697496"
      },
      "geometry": {
        "type": "Point",
        "coordinates": [
          15.636836751748413,
          23.503458080320485
        ]
      }
    },
    {
      "type": "Feature",
      "properties": {
        "norad_id": 39084,
        "name": "LANDSAT 8",
        "group": "resource",
        "lat": -24.511676797275847,
        "lon": -124.94441296434914,
        "alt_km": 708.393972839941,
        "timestamp": "2025-12-16T19:34:23.921958+00:00",
        "meta_object_name": "LANDSAT 8",
        "meta_object_id": "2013-008A",
        "meta_epoch": "2025-12-15T21:12:43.882272",
        "meta_mean_motion": 14.5711707,
        "meta_eccentricity": 0.00010741,
        "meta_inclination": 98.207,
        "meta_ra_of_asc_node": 57.9109,
        "meta_arg_of_pericenter": 90.3694,
        "meta_mean_anomaly": 269.7627,
        "meta_ephemeris_type": 0,
        "meta_classification_type": "U",
        "meta_norad_cat_id": 39084,
        "meta_element_set_no": 999,
        "meta_rev_at_epoch": 67120,
        "meta_bstar": 9.8403613e-05,
        "meta_mean_motion_dot": 3.98e-06,
        "meta_mean_motion_ddot": 0,
        "tle_line1": "1 39084U 13008A   25349.88384123  .00000398  00000+0  98404-4 0  9994",
        "tle_line2": "2 39084  98.2070  57.9109 0001074  90.3694 269.7627 14.57117070671204"
      },
      "geometry": {
        "type": "Point",
        "coordinates": [
          -124.94441296434914,
          -24.511676797275847
        ]
      }
    },
    {
      "type": "Feature",
      "properties": {
        "norad_id": 39086,
        "name": "SARAL",
        "group": "resource",
        "lat": -13.53548928359011,
        "lon": -7.383108225855537,
        "alt_km": 787.1690272319647,
        "timestamp": "2025-12-16T19:34:23.921969+00:00",
        "meta_object_name": "SARAL",
        "meta_object_id": "2013-009A",
        "meta_epoch": "2025-12-15T22:33:37.236384",
        "meta_mean_motion": 14.32758145,
        "meta_eccentricity": 0.0002918,
        "meta_inclination": 98.5502,
        "meta_ra_of_asc_node": 173.8287,
        "meta_arg_of_pericenter": 102.7484,
        "meta_mean_anomaly": 257.4026,
        "meta_ephemeris_type": 0,
        "meta_classification_type": "U",
        "meta_norad_cat_id": 39086,
        "meta_element_set_no": 999,
        "meta_rev_at_epoch": 66936,
        "meta_bstar": 6.0299529e-05,
        "meta_mean_motion_dot": 1.21e-06,
        "meta_mean_motion_ddot": 0,
        "tle_line1": "1 39086U 13009A   25349.94001431  .00000121  00000+0  60300-4 0  9990",
        "tle_line2": "2 39086  98.5502 173.8287 0002918 102.7484 257.4026 14.32758145669365"
      },
      "geometry": {
        "type": "Point",
        "coordinates": [
          -7.383108225855537,
          -13.53548928359011
        ]
      }
    },
    {
      "type": "Feature",
      "properties": {
        "norad_id": 39150,
        "name": "GAOFEN-1",
        "group": "resource",
        "lat": -71.01829574208836,
        "lon": -142.5112133899951,
        "alt_km": 654.43633908836,
        "timestamp": "2025-12-16T19:34:23.921979+00:00",
        "meta_object_name": "GAOFEN-1",
        "meta_object_id": "2013-018A",
        "meta_epoch": "2025-12-15T22:55:01.174080",
        "meta_mean_motion": 14.76540185,
        "meta_eccentricity": 0.00183469,
        "meta_inclination": 97.9325,
        "meta_ra_of_asc_node": 60.5573,
        "meta_arg_of_pericenter": 133.0488,
        "meta_mean_anomaly": 227.2262,
        "meta_ephemeris_type": 0,
        "meta_classification_type": "U",
        "meta_norad_cat_id": 39150,
        "meta_element_set_no": 999,
        "meta_rev_at_epoch": 68120,
        "meta_bstar": 0.0001008921,
        "meta_mean_motion_dot": 6.54e-06,
        "meta_mean_motion_ddot": 0,
        "tle_line1": "1 39150U 13018A   25349.95487470  .00000654  00000+0  10089-3 0  9993",
        "tle_line2": "2 39150  97.9325  60.5573 0018346 133.0488 227.2262 14.76540185681201"
      },
      "geometry": {
        "type": "Point",
        "coordinates": [
          -142.5112133899951,
          -71.01829574208836
        ]
      }
    }
  ]
}